ORBCOMM FM115 [+]       
1 41186U 15081H   24046.80837719  .00002116  00000+0  46829-3 0  9995
2 41186  46.9969 193.6166 0000967 291.8321  68.2463 14.60368661436480
ORBCOMM FM108 [+]       
1 41187U 15081J   24046.82266754  .00001529  00000+0  37947-3 0  9991
2 41187  47.0035 245.1899 0002925 234.1663 125.8950 14.56285555435719
ORBCOMM FM117 [+]       
1 41188U 15081K   24046.85717643  .00001209  00000+0  30786-3 0  9992
2 41188  46.9992 243.9505 0003403 246.0164 114.0365 14.56286603435760
ORBCOMM FM116 [+]       
1 41189U 15081L   24046.70935700  .00002680  00000+0  63648-3 0  9990
2 41189  47.0023 334.4603 0002719 330.6227  29.4504 14.56311190434552
